0 SL-8 DEB
1 14805U 79078C   13281.62723581  .00002449  00000-0  36953-3 0  7073
2 14805 074.0630 358.5105 0003559 357.1750 117.4148 14.74904556636643
0 SL-8 DEB
1 14805U 79078C   13283.32210611  .00003177  00000-0  47776-3 0  7082
2 14805 074.0631 355.2037 0003674 352.9763 117.0767 14.74920819636897
0 SL-8 DEB
1 14805U 79078C   13285.63603756  .00002714  00000-0  40874-3 0  7093
2 14805 074.0632 350.6896 0003796 348.6827 162.5976 14.74931522637237
0 SL-8 DEB
1 14805U 79078C   13287.92414163  .00004650  00000-0  69631-3 0  7104
2 14805 074.0630 346.2261 0003934 343.5515 071.9714 14.74945649637579
0 SL-8 DEB
1 14805U 79078C   13290.15786616  .00003771  00000-0  56560-3 0  7119
2 14805 074.0621 341.8682 0004102 338.6398 052.6386 14.74962068637901
0 SL-8 DEB
1 14805U 79078C   13292.19825199  .00003223  00000-0  48400-3 0  7122
2 14805 074.0618 337.8881 0004128 335.0424 085.9315 14.74974769638208
0 SL-8 DEB
1 14805U 79078C   13294.51494417  .00004255  00000-0  63702-3 0  7134
2 14805 074.0615 333.3663 0004292 330.9727 146.3561 14.74987815638544
